{
  "type": "FeatureCollection",
  "features": [
    {
      "type": "Feature",
      "geometry": {
        "type": "Point",
        "coordinates": [
          2.1579006,
          48.6839875
        ]
      },
      "properties": {
        "osm_type": "W",
        "osm_id": 90740392,
        "osm_key": "building",
        "osm_value": "yes",
        "type": "house",
        "housenumber": "6",
        "street": "Les Vergers de Montjay",
        "locality": "Montjay",
        "district": "Montjay",
        "city": "Bures-sur-Yvette",
        "county": "Essonne",
        "state": "Île-de-France",
        "country": "France",
        "postcode": "91440",
        "countrycode": "FR",
        "extent": [
          2.157806,
          48.684052,
          2.157995,
          48.683923
        ]
      },
      "id": "kMy8h"
    },
    {
      "type": "Feature",
      "geometry": {
        "type": "Point",
        "coordinates": [
          2.4046531,
          48.6333577
        ]
      },
      "properties": {
        "osm_type": "W",
        "osm_id": 1332849920,
        "osm_key": "highway",
        "osm_value": "motorway",
        "type": "street",
        "name": "Accès autoroute A6 (Lyon)",
        "city": "Ris-Orangis",
        "county": "Essonne",
        "state": "Île-de-France",
        "country": "France",
        "postcode": "91130",
        "countrycode": "FR",
        "extent": [
          2.4039435,
          48.6338062,
          2.4053627,
          48.6329092
        ]
      },
      "id": "dFyRn"
    },
    {
      "type": "Feature",
      "geometry": {
        "type": "Point",
        "coordinates": [
          2.1937891,
          48.6696815
        ]
      },
      "properties": {
        "osm_type": "W",
        "osm_id": 404923974,
        "osm_key": "highway",
        "osm_value": "motorway",
        "type": "street",
        "name": "Accès autoroute A10 (Bordeaux)",
        "city": "Les Ulis",
        "county": "Essonne",
        "state": "Île-de-France",
        "country": "France",
        "postcode": "91940",
        "countrycode": "FR",
        "extent": [
          2.1936574,
          48.669828,
          2.1939208,
          48.6695349
        ]
      },
      "id": "18Nnk"
    },
    {
      "type": "Feature",
      "geometry": {
        "type": "Point",
        "coordinates": [
          2.1601321,
          48.6856599
        ]
      },
      "properties": {
        "osm_type": "N",
        "osm_id": 5218818015,
        "osm_key": "highway",
        "osm_value": "bus_stop",
        "type": "house",
        "name": "Beaumontel - Bus pour RER",
        "street": "Avenue Les Ulis",
        "locality": "Montjay",
        "district": "Montjay",
        "city": "Bures-sur-Yvette",
        "county": "Essonne",
        "state": "Île-de-France",
        "country": "France",
        "postcode": "91440",
        "countrycode": "FR",
        "_umap_options": {
          "outlink": "https://www.bonjour-ratp.fr/arrets-bus/beaumontel+bures-sur-yvette-91440/"
        }
      },
      "id": "DfFpf"
    },
    {
      "type": "Feature",
      "geometry": {
        "type": "Point",
        "coordinates": [
          2.1632856,
          48.6957636
        ]
      },
      "properties": {
        "osm_type": "N",
        "osm_id": 5836393507,
        "osm_key": "railway",
        "osm_value": "stop",
        "type": "house",
        "name": "Bures-sur-Yvette - RER B",
        "street": "Boulevard Georges Seneuze",
        "locality": "Bures Cottage",
        "district": "Montjay",
        "city": "Bures-sur-Yvette",
        "county": "Essonne",
        "state": "Île-de-France",
        "country": "France",
        "postcode": "91440",
        "countrycode": "FR"
      },
      "id": "uwld9"
    },
    {
      "type": "Feature",
      "geometry": {
        "type": "Point",
        "coordinates": [
          2.1719322,
          48.6767911
        ]
      },
      "properties": {
        "osm_type": "W",
        "osm_id": 77023424,
        "osm_key": "shop",
        "osm_value": "mall",
        "type": "house",
        "name": "Centre Commercial Régional Les Ulis 2",
        "street": "Allée 28-29",
        "district": "Villeziers",
        "city": "Saint-Jean-de-Beauregard",
        "county": "Essonne",
        "state": "Île-de-France",
        "country": "France",
        "postcode": "91940",
        "countrycode": "FR",
        "extent": [
          2.1689071,
          48.6778947,
          2.1745235,
          48.6757048
        ],
        "_umap_options": {
          "outlink": "https://www.westfield.com/fr/france/ulis2"
        }
      },
      "id": "nOhrI"
    },
    {
      "type": "Feature",
      "geometry": {
        "type": "Point",
        "coordinates": [
          2.1698638,
          48.682155
        ]
      },
      "properties": {
        "osm_type": "W",
        "osm_id": 77574300,
        "osm_key": "amenity",
        "osm_value": "theatre",
        "type": "house",
        "name": "Centre culturel Boris Vian",
        "street": "Esplanade de la République",
        "district": "Périgord",
        "city": "Les Ulis",
        "county": "Essonne",
        "state": "Île-de-France",
        "country": "France",
        "postcode": "91940",
        "countrycode": "FR",
        "extent": [
          2.1696047,
          48.6823773,
          2.170095,
          48.6819317
        ],
        "_umap_options": {
          "outlink": "https://www.lesulis.fr/95/sortir/culture/l-espace-culturel-boris-vian.htm"
        }
      },
      "id": "aXsCa"
    },
    {
      "type": "Feature",
      "geometry": {
        "type": "Point",
        "coordinates": [
          2.1644388,
          48.6979395
        ]
      },
      "properties": {
        "osm_type": "W",
        "osm_id": 90740997,
        "osm_key": "amenity",
        "osm_value": "theatre",
        "type": "house",
        "housenumber": "1",
        "name": "Centre culturel Marcel Pagnol - Ludothèque",
        "street": "Rue Descartes",
        "district": "Montjay",
        "city": "Bures-sur-Yvette",
        "county": "Essonne",
        "state": "Île-de-France",
        "country": "France",
        "postcode": "91440",
        "countrycode": "FR",
        "extent": [
          2.164175,
          48.698155,
          2.164663,
          48.697726
        ],
        "_umap_options": {
          "outlink": "https://www.bures-sur-yvette.fr/la-ludotheque-burlututu/"
        }
      },
      "id": "lqtR2"
    },
    {
      "type": "Feature",
      "geometry": {
        "type": "Point",
        "coordinates": [
          2.1630313,
          48.6819493
        ]
      },
      "properties": {
        "osm_type": "W",
        "osm_id": 77034948,
        "osm_key": "building",
        "osm_value": "school",
        "type": "house",
        "name": "Collège Aimé Césaire",
        "street": "Rue de l'Aunis",
        "locality": "Les Amonts",
        "district": "Anjou",
        "city": "Les Ulis",
        "county": "Essonne",
        "state": "Île-de-France",
        "country": "France",
        "postcode": "91940",
        "countrycode": "FR",
        "extent": [
          2.1623502,
          48.6825226,
          2.1635488,
          48.6812971
        ],
        "_umap_options": {
          "outlink": "https://clg-aimecesaire-ulis.fr/"
        }
      },
      "id": "BuUB9"
    },
    {
      "type": "Feature",
      "geometry": {
        "type": "Point",
        "coordinates": [
          2.1574408,
          48.7004578
        ]
      },
      "properties": {
        "osm_type": "W",
        "osm_id": 220254689,
        "osm_key": "amenity",
        "osm_value": "school",
        "type": "house",
        "housenumber": "51",
        "name": "Collège La Guyonnerie",
        "street": "Rue du Docteur Collé",
        "district": "Montjay",
        "city": "Bures-sur-Yvette",
        "county": "Essonne",
        "state": "Île-de-France",
        "country": "France",
        "postcode": "91440",
        "countrycode": "FR",
        "extent": [
          2.1567573,
          48.7013219,
          2.1582367,
          48.7000712
        ],
        "_umap_options": {
          "outlink": "https://clg-laguyonnerie-bures.ac-versailles.fr/"
        }
      },
      "id": "6Ruc4"
    },
    {
      "type": "Feature",
      "geometry": {
        "type": "Point",
        "coordinates": [
          2.1605587,
          48.6778684
        ]
      },
      "properties": {
        "osm_type": "W",
        "osm_id": 90741034,
        "osm_key": "amenity",
        "osm_value": "school",
        "type": "house",
        "name": "École des Quatre Coins",
        "street": "Rue Camille Saint-Saëns",
        "locality": "Les Hauts de Bures",
        "district": "Montjay",
        "city": "Bures-sur-Yvette",
        "county": "Essonne",
        "state": "Île-de-France",
        "country": "France",
        "postcode": "91440",
        "countrycode": "FR",
        "extent": [
          2.1597114,
          48.6785226,
          2.1614516,
          48.6772206
        ],
        "_umap_options": {
          "outlink": "https://4coins.toutemonecole.fr/informations"
        }
      },
      "id": "MCvHN"
    },
    {
      "type": "Feature",
      "geometry": {
        "type": "Point",
        "coordinates": [
          2.1667869,
          48.6827832
        ]
      },
      "properties": {
        "osm_type": "N",
        "osm_id": 1611009440,
        "osm_key": "highway",
        "osm_value": "bus_stop",
        "type": "house",
        "name": "Hautes Plaines - Bus pour Orsay, Courtaboeuf, Massy",
        "street": "Avenue du Berry",
        "city": "Les Ulis",
        "county": "Essonne",
        "state": "Île-de-France",
        "country": "France",
        "postcode": "91940",
        "countrycode": "FR",
        "_umap_options": {
          "outlink": "https://www.bonjour-ratp.fr/arrets-bus/hautes-plaines+les-ulis-91940/"
        }
      },
      "id": "dH5vM"
    },
    {
      "type": "Feature",
      "geometry": {
        "type": "Point",
        "coordinates": [
          2.1879471,
          48.69522
        ]
      },
      "properties": {
        "osm_type": "W",
        "osm_id": 65655071,
        "osm_key": "building",
        "osm_value": "school",
        "type": "house",
        "name": "Lycée Blaise Pascal - Prépas scientifiques",
        "street": "Rue Alexander Fleming",
        "locality": "Orsay Centre",
        "district": "La Bouvêche",
        "city": "Orsay",
        "county": "Essonne",
        "state": "Île-de-France",
        "country": "France",
        "postcode": "91400",
        "countrycode": "FR",
        "extent": [
          2.1877321,
          48.6958996,
          2.1881942,
          48.6944709
        ],
        "_umap_options": {
          "outlink": "https://lyc-pascal-orsay.ac-versailles.fr/"
        }
      },
      "id": "Ktr7y"
    },
    {
      "type": "Feature",
      "geometry": {
        "type": "Point",
        "coordinates": [
          2.164585,
          48.6759105
        ]
      },
      "properties": {
        "osm_type": "W",
        "osm_id": 164926493,
        "osm_key": "amenity",
        "osm_value": "school",
        "type": "house",
        "name": "Lycée de l'Essouriau",
        "street": "Rue de l'Adour",
        "district": "Béarn",
        "city": "Les Ulis",
        "county": "Essonne",
        "state": "Île-de-France",
        "country": "France",
        "postcode": "91940",
        "countrycode": "FR",
        "extent": [
          2.1615496,
          48.6766627,
          2.1671176,
          48.6750015
        ],
        "_umap_options": {
          "outlink": "https://lyceedelessouriau.fr/"
        }
      },
      "id": "HRTLs"
    },
    {
      "type": "Feature",
      "geometry": {
        "type": "Point",
        "coordinates": [
          2.1701132,
          48.6830407
        ]
      },
      "properties": {
        "osm_type": "N",
        "osm_id": 1241512106,
        "osm_key": "amenity",
        "osm_value": "marketplace",
        "type": "house",
        "name": "Marché des Ulis",
        "street": "Place de la Liberté",
        "district": "Bourgogne",
        "city": "Les Ulis",
        "county": "Essonne",
        "state": "Île-de-France",
        "country": "France",
        "postcode": "91940",
        "countrycode": "FR"
      },
      "id": "7VCfH"
    },
    {
      "type": "Feature",
      "geometry": {
        "type": "Point",
        "coordinates": [
          2.1706986,
          48.6812001
        ]
      },
      "properties": {
        "osm_type": "W",
        "osm_id": 77574405,
        "osm_key": "amenity",
        "osm_value": "library",
        "type": "house",
        "name": "Médiathèque François Mitterrand",
        "street": "Esplanade de la République",
        "district": "Périgord",
        "city": "Les Ulis",
        "county": "Essonne",
        "state": "Île-de-France",
        "country": "France",
        "postcode": "91940",
        "countrycode": "FR",
        "extent": [
          2.1704905,
          48.681404,
          2.1708865,
          48.6809961
        ],
        "_umap_options": {
          "outlink": "https://www.lesulis.fr/105/sortir/mediatheque.htm"
        }
      },
      "id": "00Elx"
    },
    {
      "type": "Feature",
      "geometry": {
        "type": "Point",
        "coordinates": [
          2.1591996,
          48.6836793
        ]
      },
      "properties": {
        "osm_type": "N",
        "osm_id": 1043982084,
        "osm_key": "highway",
        "osm_value": "bus_stop",
        "type": "house",
        "name": "Montjay - Bus pour Guyonnerie et Université",
        "street": "Rue de Mondétour",
        "locality": "Montjay",
        "district": "Montjay",
        "city": "Bures-sur-Yvette",
        "county": "Essonne",
        "state": "Île-de-France",
        "country": "France",
        "postcode": "91440",
        "countrycode": "FR",
        "_umap_options": {
          "outlink": "https://www.bonjour-ratp.fr/arrets-bus/montjay+bures-sur-yvette-91440/"
        }
      },
      "id": "tfO4C"
    },
    {
      "type": "Feature",
      "geometry": {
        "type": "Point",
        "coordinates": [
          2.1670349,
          48.6897276
        ]
      },
      "properties": {
        "osm_type": "W",
        "osm_id": 147125921,
        "osm_key": "leisure",
        "osm_value": "park",
        "type": "other",
        "name": "Parc Nord",
        "district": "Champagne",
        "city": "Les Ulis",
        "county": "Essonne",
        "state": "Île-de-France",
        "country": "France",
        "postcode": "91940",
        "countrycode": "FR",
        "extent": [
          2.1614058,
          48.6929848,
          2.1740966,
          48.6868145
        ],
        "_umap_options": {
          "outlink": "https://www.destination-paris-saclay.com/fr/fiche/patrimoine-culturel/parc-paul-loridant-les-ulis_TFO5275934/"
        }
      },
      "id": "GsVVA"
    },
    {
      "type": "Feature",
      "geometry": {
        "type": "Point",
        "coordinates": [
          2.1705695,
          48.6826214
        ]
      },
      "properties": {
        "osm_type": "N",
        "osm_id": 10299245709,
        "osm_key": "amenity",
        "osm_value": "theatre",
        "type": "house",
        "name": "Radazik - Salle de concerts",
        "street": "Place de la Liberté",
        "district": "Bourgogne",
        "city": "Les Ulis",
        "county": "Essonne",
        "state": "Île-de-France",
        "country": "France",
        "postcode": "91940",
        "countrycode": "FR",
        "_umap_options": {
          "outlink": "https://www.lesulis.fr/96/sortir/culture/le-radazik.htm"
        }
      },
      "id": "hMW0d"
    },
    {
      "type": "Feature",
      "geometry": {
        "type": "Point",
        "coordinates": [
          2.1728617,
          48.7102947
        ]
      },
      "properties": {
        "osm_type": "R",
        "osm_id": 562947,
        "osm_key": "building",
        "osm_value": "university",
        "type": "house",
        "housenumber": "640",
        "name": "Université Paris-Saclay",
        "street": "6 rue Sophie Germain",
        "locality": "Belvedère",
        "district": "Corbeville",
        "city": "Orsay",
        "county": "Essonne",
        "state": "Île-de-France",
        "country": "France",
        "postcode": "91400",
        "countrycode": "FR",
        "extent": [
          2.172741,
          48.7109602,
          2.173812,
          48.7095827
        ]
      },
      "id": "Fg2VH"
    },
    {
      "type": "Feature",
      "geometry": {
        "type": "Point",
        "coordinates": [
          2.1708234,
          48.7004017
        ]
      },
      "properties": {
        "osm_type": "W",
        "osm_id": 23790201,
        "osm_key": "amenity",
        "osm_value": "university",
        "type": "house",
        "name": "Université Paris-Saclay - Campus Vallée",
        "street": "Rue Charles de Gaulle",
        "locality": "Bures Cottage",
        "district": "Montjay",
        "city": "Orsay",
        "county": "Essonne",
        "state": "Île-de-France",
        "country": "France",
        "postcode": "91440",
        "countrycode": "FR",
        "extent": [
          2.1576212,
          48.7042586,
          2.1837013,
          48.6965341
        ],
        "_umap_options": {
          "outlink": "https://ecole-universitaire-paris-saclay.fr/les-campus"
        }
      },
      "id": "1nnMm"
    },
    {
      "type": "Feature",
      "geometry": {
        "type": "Point",
        "coordinates": [
          2.1526019,
          48.6789005
        ]
      },
      "properties": {
        "osm_type": "R",
        "osm_id": 12235875,
        "osm_key": "man_made",
        "osm_value": "bridge",
        "type": "house",
        "name": "Viaduc des Fauvettes - Voies d'escalade",
        "street": "Viaduc des Fauvettes",
        "district": "Clos de Grivery",
        "city": "Gometz-le-Châtel",
        "county": "Essonne",
        "state": "Île-de-France",
        "country": "France",
        "postcode": "91940",
        "countrycode": "FR",
        "extent": [
          2.1517694,
          48.6797994,
          2.1532149,
          48.6780261
        ],
        "_umap_options": {
          "outlink": "https://www.camptocamp.org/waypoints/102840/fr/viaduc-des-fauvettes"
        }
      },
      "id": "QWFxi"
    },
    {
      "type": "Feature",
      "geometry": {
        "type": "Point",
        "coordinates": [
          2.1580459,
          48.6920942
        ]
      },
      "properties": {
        "osm_type": "W",
        "osm_id": 147467727,
        "osm_key": "amenity",
        "osm_value": "school",
        "type": "house",
        "name": "École primaire Léopold Gardey",
        "street": "Avenue Édouard Herriot",
        "locality": "Bures-Royaume",
        "district": "Bures-Montjay",
        "city": "Bures-sur-Yvette",
        "county": "Essonne",
        "state": "Île-de-France",
        "country": "France",
        "postcode": "91440",
        "countrycode": "FR",
        "extent": [
          2.1567804,
          48.6929708,
          2.1592372,
          48.6912829
        ],
        "_umap_options": {
          "outlink": "https://www.education.gouv.fr/annuaire/91440/bures-sur-yvette/ecole/0910361y/ecole-elementaire-leopold-gardey.html"
        }
      },
      "id": "Q9Kws"
    }
  ]
}